start=new Date('2021-10-10T00:00:00.000Z').valueOf();
sats=[{"RA_OF_ASC_NODE":"122.6266","ELEMENT_SET_NO":"999","EPHEMERIS_TYPE":"0","OBJECT_TYPE":"PAYLOAD","MEAN_MOTION":"15.06386211","PERIOD":"95.593","EPOCH":"2021-10-09T19:29:49.192224","TIME_SYSTEM":"UTC","GP_ID":"186726101","SITE":"AFETR","RCS_SIZE":"LARGE","INCLINATION":"53.0529","OBJECT_ID":"2020-025AB","APOAPSIS":"548.616","MEAN_ELEMENT_THEORY":"SGP4","COUNTRY_CODE":"US","SEMIMAJOR_AXIS":"6925.391","TLE_LINE1":"1 45556U 20025AB  21282.81237491 -.00000570  00000-0 -19347-4 0  9996","BSTAR":"-0.00001934700000","LAUNCH_DATE":"2020-04-22","ECCENTRICITY":"0.00019640","OBJECT_NAME":"STARLINK-1334","DECAY_DATE":null,"PERIAPSIS":"545.896","REV_AT_EPOCH":"8242","FILE":"3153808","TLE_LINE2":"2 45556  53.0529 122.6266 0001964  74.4522 285.6684 15.06386211 82428","NORAD_CAT_ID":"45556","REF_FRAME":"TEME","MEAN_MOTION_DOT":"-0.00000570","CLASSIFICATION_TYPE":"U","CENTER_NAME":"EARTH","MEAN_ANOMALY":"285.6684","MEAN_MOTION_DDOT":"0.0000000000000","ARG_OF_PERICENTER":"74.4522"},{"OBJECT_NAME":"STARLINK-1336","ECCENTRICITY":"0.00025000","DECAY_DATE":null,"LAUNCH_DATE":"2020-04-22","FILE":"3153808","PERIAPSIS":"545.498","REV_AT_EPOCH":"8241","CLASSIFICATION_TYPE":"U","TLE_LINE2":"2 45557  53.0546 122.8935 0002500  72.0416 288.0845 15.06394855 82414","NORAD_CAT_ID":"45557","REF_FRAME":"TEME","MEAN_MOTION_DOT":"-0.00001974","ARG_OF_PERICENTER":"72.0416","CENTER_NAME":"EARTH","MEAN_ANOMALY":"288.0845","MEAN_MOTION_DDOT":"0.0000000000000","ELEMENT_SET_NO":"999","OBJECT_TYPE":"PAYLOAD","EPHEMERIS_TYPE":"0","RA_OF_ASC_NODE":"122.8935","EPOCH":"2021-10-09T18:04:54.117696","TIME_SYSTEM":"UTC","MEAN_MOTION":"15.06394855","PERIOD":"95.592","APOAPSIS":"548.961","GP_ID":"186727356","SITE":"AFETR","INCLINATION":"53.0546","RCS_SIZE":"LARGE","OBJECT_ID":"2020-025AC","SEMIMAJOR_AXIS":"6925.364","TLE_LINE1":"1 45557U 20025AC  21282.75340414 -.00001974  00000-0 -11364-3 0  9999","BSTAR":"-0.00011364000000","MEAN_ELEMENT_THEORY":"SGP4","COUNTRY_CODE":"US"},{"TIME_SYSTEM":"UTC","EPOCH":"2021-10-09T18:52:41.109888","MEAN_MOTION":"15.06394947","PERIOD":"95.592","EPHEMERIS_TYPE":"0","OBJECT_TYPE":"PAYLOAD","ELEMENT_SET_NO":"999","RA_OF_ASC_NODE":"122.7403","BSTAR":"0.00007871200000","TLE_LINE1":"1 45558U 20025AD  21282.78658692  .00000891  00000-0  78712-4 0  9999","SEMIMAJOR_AXIS":"6925.364","COUNTRY_CODE":"US","MEAN_ELEMENT_THEORY":"SGP4","APOAPSIS":"548.663","INCLINATION":"53.0538","RCS_SIZE":"LARGE","OBJECT_ID":"2020-025AD","SITE":"AFETR","GP_ID":"186727104","FILE":"3153808","REV_AT_EPOCH":"8241","PERIAPSIS":"545.795","DECAY_DATE":null,"OBJECT_NAME":"STARLINK-1342","ECCENTRICITY":"0.00020700","LAUNCH_DATE":"2020-04-22","ARG_OF_PERICENTER":"90.4949","MEAN_MOTION_DDOT":"0.0000000000000","MEAN_ANOMALY":"269.6277","CENTER_NAME":"EARTH","CLASSIFICATION_TYPE":"U","MEAN_MOTION_DOT":"0.00000891","REF_FRAME":"TEME","TLE_LINE2":"2 45558  53.0538 122.7403 0002070  90.4949 269.6277 15.06394947 82418","NORAD_CAT_ID":"45558"},{"CLASSIFICATION_TYPE":"U","TLE_LINE2":"2 45559  53.0533 122.8683 0001857  89.7820 270.3381 15.06412176 82416","NORAD_CAT_ID":"45559","REF_FRAME":"TEME","MEAN_MOTION_DOT":"0.00001948","ARG_OF_PERICENTER":"89.7820","MEAN_ANOMALY":"270.3381","CENTER_NAME":"EARTH","MEAN_MOTION_DDOT":"0.0000000000000","OBJECT_NAME":"STARLINK-1344","ECCENTRICITY":"0.00018570","DECAY_DATE":null,"LAUNCH_DATE":"2020-04-22","FILE":"3153808","PERIAPSIS":"545.890","REV_AT_EPOCH":"8241","APOAPSIS":"548.462","GP_ID":"186726356","SITE":"AFETR","OBJECT_ID":"2020-025AE","RCS_SIZE":"LARGE","INCLINATION":"53.0533","SEMIMAJOR_AXIS":"6925.311","BSTAR":"0.00014959000000","TLE_LINE1":"1 45559U 20025AE  21282.75707162  .00001948  00000-0  14959-3 0  9990","MEAN_ELEMENT_THEORY":"SGP4","COUNTRY_CODE":"US","ELEMENT_SET_NO":"999","OBJECT_TYPE":"PAYLOAD","EPHEMERIS_TYPE":"0","RA_OF_ASC_NODE":"122.8683","EPOCH":"2021-10-09T18:10:10.987968","TIME_SYSTEM":"UTC","MEAN_MOTION":"15.06412176","PERIOD":"95.591"},{"LAUNCH_DATE":"2020-04-22","DECAY_DATE":null,"ECCENTRICITY":"0.00019130","OBJECT_NAME":"STARLINK-1346","REV_AT_EPOCH":"8256","PERIAPSIS":"545.912","FILE":"3153808","MEAN_MOTION_DOT":"-0.00000566","REF_FRAME":"TEME","NORAD_CAT_ID":"45560","TLE_LINE2":"2 45560  53.0538 112.6356 0001913  73.1305 286.9893 15.06392251 82563","CLASSIFICATION_TYPE":"U","MEAN_MOTION_DDOT":"0.0000000000000","MEAN_ANOMALY":"286.9893","CENTER_NAME":"EARTH","ARG_OF_PERICENTER":"73.1305","RA_OF_ASC_NODE":"112.6356","EPHEMERIS_TYPE":"0","OBJECT_TYPE":"PAYLOAD","ELEMENT_SET_NO":"999","PERIOD":"95.593","MEAN_MOTION":"15.06392251","TIME_SYSTEM":"UTC","EPOCH":"2021-10-09T19:25:49.988640","RCS_SIZE":"LARGE","OBJECT_ID":"2020-025AF","INCLINATION":"53.0538","SITE":"AFETR","GP_ID":"186726601","APOAPSIS":"548.562","COUNTRY_CODE":"US","MEAN_ELEMENT_THEORY":"SGP4","TLE_LINE1":"1 45560U 20025AF  21282.80960635 -.00000566  00000-0 -19093-4 0  9996","BSTAR":"-0.00001909300000","SEMIMAJOR_AXIS":"6925.372"},{"BSTAR":"0.00038425000000","TLE_LINE1":"1 45561U 20025AG  21282.58401509  .00005565  00000-0  38425-3 0  9993","SEMIMAJOR_AXIS":"6922.992","COUNTRY_CODE":"US","MEAN_ELEMENT_THEORY":"SGP4","APOAPSIS":"545.689","GP_ID":"186726857","RCS_SIZE":"LARGE","OBJECT_ID":"2020-025AG","INCLINATION":"53.0600","SITE":"AFETR","EPOCH":"2021-10-09T14:00:58.903776","TIME_SYSTEM":"UTC","MEAN_MOTION":"15.07169064","PERIOD":"95.543","ELEMENT_SET_NO":"999","EPHEMERIS_TYPE":"0","OBJECT_TYPE":"PAYLOAD","RA_OF_ASC_NODE":"38.4341","ARG_OF_PERICENTER":"127.7429","MEAN_ANOMALY":"232.3670","CENTER_NAME":"EARTH","MEAN_MOTION_DDOT":"0.0000000000000","CLASSIFICATION_TYPE":"U","REF_FRAME":"TEME","TLE_LINE2":"2 45561  53.0600  38.4341 0001201 127.7429 232.3670 15.07169064 83582","NORAD_CAT_ID":"45561","MEAN_MOTION_DOT":"0.00005565","FILE":"3153808","PERIAPSIS":"544.026","REV_AT_EPOCH":"8358","ECCENTRICITY":"0.00012010","OBJECT_NAME":"STARLINK-1348","DECAY_DATE":null,"LAUNCH_DATE":"2020-04-22"},{"MEAN_MOTION":"15.06416540","PERIOD":"95.591","TIME_SYSTEM":"UTC","EPOCH":"2021-10-09T18:20:46.669920","RA_OF_ASC_NODE":"122.8364","OBJECT_TYPE":"PAYLOAD","EPHEMERIS_TYPE":"0","ELEMENT_SET_NO":"999","COUNTRY_CODE":"US","MEAN_ELEMENT_THEORY":"SGP4","BSTAR":"0.00011888000000","TLE_LINE1":"1 45562U 20025AH  21282.76442905  .00001490  00000-0  11888-3 0  9996","SEMIMAJOR_AXIS":"6925.298","OBJECT_ID":"2020-025AH","RCS_SIZE":"LARGE","INCLINATION":"53.0538","SITE":"AFETR","GP_ID":"186727604","APOAPSIS":"548.722","REV_AT_EPOCH":"8241","PERIAPSIS":"545.603","FILE":"3153808","LAUNCH_DATE":"2020-04-22","DECAY_DATE":null,"OBJECT_NAME":"STARLINK-1354","ECCENTRICITY":"0.00022520","MEAN_MOTION_DDOT":"0.0000000000000","MEAN_ANOMALY":"270.8025","CENTER_NAME":"EARTH","ARG_OF_PERICENTER":"89.3221","MEAN_MOTION_DOT":"0.00001490","REF_FRAME":"TEME","TLE_LINE2":"2 45562  53.0538 122.8364 0002252  89.3221 270.8025 15.06416540 82411","NORAD_CAT_ID":"45562","CLASSIFICATION_TYPE":"U"},{"REV_AT_EPOCH":"8241","PERIAPSIS":"545.918","FILE":"3153808","LAUNCH_DATE":"2020-04-22","DECAY_DATE":null,"ECCENTRICITY":"0.00018540","OBJECT_NAME":"STARLINK-1355","MEAN_MOTION_DDOT":"0.0000000000000","CENTER_NAME":"EARTH","MEAN_ANOMALY":"287.9926","ARG_OF_PERICENTER":"72.1265","MEAN_MOTION_DOT":"0.00001555","REF_FRAME":"TEME","NORAD_CAT_ID":"45563","TLE_LINE2":"2 45563  53.0534 122.7727 0001854  72.1265 287.9926 15.06403833 82415","CLASSIFICATION_TYPE":"U","PERIOD":"95.592","MEAN_MOTION":"15.06403833","TIME_SYSTEM":"UTC","EPOCH":"2021-10-09T18:42:03.936672","RA_OF_ASC_NODE":"122.7727","OBJECT_TYPE":"PAYLOAD","EPHEMERIS_TYPE":"0","ELEMENT_SET_NO":"999","COUNTRY_CODE":"US","MEAN_ELEMENT_THEORY":"SGP4","BSTAR":"0.00012324000000","TLE_LINE1":"1 45563U 20025AJ  21282.77921223  .00001555  00000-0  12324-3 0  9991","SEMIMAJOR_AXIS":"6925.337","OBJECT_ID":"2020-025AJ","RCS_SIZE":"LARGE","INCLINATION":"53.0534","SITE":"AFETR","GP_ID":"186725857","APOAPSIS":"548.486"},{"OBJECT_NAME":"STARLINK-1356","ECCENTRICITY":"0.00020740","DECAY_DATE":null,"LAUNCH_DATE":"2020-04-22","FILE":"3153808","PERIAPSIS":"545.781","REV_AT_EPOCH":"8241","CLASSIFICATION_TYPE":"U","NORAD_CAT_ID":"45564","TLE_LINE2":"2 45564  53.0527 122.7850 0002074  86.6944 273.4282 15.06398668 82418","REF_FRAME":"TEME","MEAN_MOTION_DOT":"-0.00000367","ARG_OF_PERICENTER":"86.6944","MEAN_ANOMALY":"273.4282","CENTER_NAME":"EARTH","MEAN_MOTION_DDOT":"0.0000000000000","ELEMENT_SET_NO":"999","OBJECT_TYPE":"PAYLOAD","EPHEMERIS_TYPE":"0","RA_OF_ASC_NODE":"122.7850","EPOCH":"2021-10-09T18:36:44.382816","TIME_SYSTEM":"UTC","MEAN_MOTION":"15.06398668","PERIOD":"95.592","APOAPSIS":"548.654","GP_ID":"186726102","SITE":"AFETR","OBJECT_ID":"2020-025AK","RCS_SIZE":"LARGE","INCLINATION":"53.0527","SEMIMAJOR_AXIS":"6925.353","BSTAR":"-0.00000573650000","TLE_LINE1":"1 45564U 20025AK  21282.77551369 -.00000367  00000-0 -57365-5 0  9990","MEAN_ELEMENT_THEORY":"SGP4","COUNTRY_CODE":"US"},{"BSTAR":"-0.00001958000000","TLE_LINE1":"1 45565U 20025AL  21282.76814179 -.00000573  00000-0 -19580-4 0  9996","SEMIMAJOR_AXIS":"6925.358","COUNTRY_CODE":"US","MEAN_ELEMENT_THEORY":"SGP4","APOAPSIS":"548.674","GP_ID":"186727357","INCLINATION":"53.0536","RCS_SIZE":"LARGE","OBJECT_ID":"2020-025AL","SITE":"AFETR","EPOCH":"2021-10-09T18:26:07.450656","TIME_SYSTEM":"UTC","MEAN_MOTION":"15.06396809","PERIOD":"95.592","ELEMENT_SET_NO":"999","EPHEMERIS_TYPE":"0","OBJECT_TYPE":"PAYLOAD","RA_OF_ASC_NODE":"122.8225","ARG_OF_PERICENTER":"84.4610","CENTER_NAME":"EARTH","MEAN_ANOMALY":"275.6618","MEAN_MOTION_DDOT":"0.0000000000000","CLASSIFICATION_TYPE":"U","REF_FRAME":"TEME","NORAD_CAT_ID":"45565","TLE_LINE2":"2 45565  53.0536 122.8225 0002094  84.4610 275.6618 15.06396809 82416","MEAN_MOTION_DOT":"-0.00000573","FILE":"3153808","PERIAPSIS":"545.773","REV_AT_EPOCH":"8241","ECCENTRICITY":"0.00020940","OBJECT_NAME":"STARLINK-1357","DECAY_DATE":null,"LAUNCH_DATE":"2020-04-22"}];
